STARLINK-2400_new
1 17817C 21018AG  21326.18401023 -.00020159  00000-0 -13507-2 0  3263
2 17817  53.0541  92.9037 0001353  69.4833 358.7665 15.06418845    15
STARLINK-2400_old
1 27817C 21018AG  21325.13271852  .00003513  00000-0  23536-3 0  3258
2 27817  53.0535  97.6229 0001433  71.5729  52.3163 15.06397029    10
